GLOBALSTAR M063 [+]     
1 26081U 00008A   23360.43831705 -.00000081  00000+0  30133-4 0  9993
2 26081  51.9958  90.4144 0004076  11.7801  68.4304 11.86148773 93646
GLOBALSTAR M062 [-]     
1 26082U 00008B   23360.96612486 -.00000009  00000+0  64040-3 0  9998
2 26082  51.9833 238.4736 0008106  47.5571  56.3468 12.43424335429666
GLOBALSTAR M060 [-]     
1 26083U 00008C   23360.65843119 -.00000103  00000+0 -11664-3 0  9994
2 26083  52.0011 123.1983 0004434 110.8115 351.6383 12.17621194 86769
GLOBALSTAR M064 [-]     
1 26084U 00008D   23360.81782579 -.00000056  00000+0  38744-3 0  9999
2 26084  51.9996 194.5936 0002791  95.7687 264.3463 11.88514077103081
GLOBALSTAR M065 [+]     
1 31571U 07020A   23360.50327990 -.00000076  00000+0  15670-3 0  9990
2 31571  51.9905  65.7757 0010116 191.7792 272.1253 12.61961067765391
GLOBALSTAR M069 [+]     
1 31573U 07020C   23360.92729425 -.00000055  00000+0  27221-3 0  9999
2 31573  51.9974  20.5374 0000101 281.5494 147.2352 12.62263011766571
GLOBALSTAR M072 [+]     
1 31574U 07020D   23360.54054639 -.00000110  00000+0 -36518-4 0  9999
2 31574  52.0078 117.4961 0001283 127.0555   1.8938 12.62269496764791
GLOBALSTAR M071 [P]     
1 31576U 07020F   23360.49997264 -.00000052  00000+0  28905-3 0  9999
2 31576  52.0088  26.8678 0000342  26.3027 139.2585 12.62263823427701
